H1 CPF 01  gfz 2022 04 18 12  6082 tandemx   
H2 1003001  6202 36605    2022 04 18 12 59 42 2022 04 23 00 00 42   120 1 1  0 0 0
H9
10 0 59689  72702.000000  0   -1807445.081   2132704.689  -6303046.095
10 0 59689  72822.000000  0   -1046403.296   1711024.935  -6597221.368
10 0 59689  72942.000000  0    -274991.546   1246301.013  -6776314.396
10 0 59689  73062.000000  0     492744.464    746531.770  -6837245.615
10 0 59689  73182.000000  0    1242976.666    220557.376  -6778968.290
10 0 59689  73302.000000  0    1962339.131   -322093.993  -6602485.075
10 0 59689  73422.000000  0    2638160.202   -871374.322  -6310831.574
10 0 59689  73542.000000  0    3258682.101  -1416896.873  -5909030.273
10 0 59689  73662.000000  0    3813263.733  -1948127.164  -5404012.751
10 0 59689  73782.000000  0    4292565.791  -2454583.272  -4804512.300
10 0 59689  73902.000000  0    4688712.987  -2926041.791  -4120923.454
10 0 59689  74022.000000  0    4995429.718  -3352743.848  -3365131.950
10 0 59689  74142.000000  0    5208148.114  -3725597.778  -2550316.585
10 0 59689  74262.000000  0    5324084.767  -4036374.256  -1690723.735
10 0 59689  74382.000000  0    5342282.565  -4277888.417   -801419.115
10 0 59689  74502.000000  0    5263616.893  -4444165.014    101979.178
10 0 59689  74622.000000  0    5090764.775  -4530582.190   1003581.235
10 0 59689  74742.000000  0    4828136.354  -4533988.095   1887513.711
10 0 59689  74862.000000  0    4481771.284  -4452787.728   2738208.284
10 0 59689  74982.000000  0    4059203.240  -4286997.764   3540683.633
10 0 59689  75102.000000  0    3569295.628  -4038269.318   4280815.681
10 0 59689  75222.000000  0    3022051.752  -3709876.883   4945590.466
10 0 59689  75342.000000  0    2428405.981  -3306673.615   5523333.327
10 0 59689  75462.000000  0    1800001.091  -2835015.981   6003912.444
10 0 59689  75582.000000  0    1148955.345  -2302658.105   6378911.909
10 0 59689  75702.000000  0     487626.279  -1718620.159   6641772.842
10 0 59689  75822.000000  0    -171625.169  -1093032.653   6787902.061
10 0 59689  75942.000000  0    -816665.160   -436958.641   6814747.456
10 0 59689  76062.000000  0   -1435809.244    237802.417   6721839.389
10 0 59689  76182.000000  0   -2018033.343    918926.462   6510798.433
10 0 59689  76302.000000  0   -2553169.801   1593789.128   6185308.914
10 0 59689  76422.000000  0   -3032085.775   2249698.929   5751058.684
10 0 59689  76542.000000  0   -3446841.494   2874136.449   5215646.233
10 0 59689  76662.000000  0   -3790826.097   3454995.457   4588453.717
10 0 59689  76782.000000  0   -4058867.762   3980820.789   3880487.849
10 0 59689  76902.000000  0   -4247315.780   4441039.329   3104190.537
10 0 59689  77022.000000  0   -4354092.428   4826178.343   2273220.578
10 0 59689  77142.000000  0   -4378711.992   5128064.919   1402210.400
10 0 59689  77262.000000  0   -4322268.037   5340001.590    506503.547
10 0 59689  77382.000000  0   -4187389.275   5456914.739   -398122.257
10 0 59689  77502.000000  0   -3978163.302   5475472.290  -1295742.764
10 0 59689  77622.000000  0   -3700029.650   5394163.571  -2170578.357
10 0 59689  77742.000000  0   -3359645.640   5213342.433  -3007278.477
10 0 59689  77862.000000  0   -2964729.726   4935232.857  -3791196.363
10 0 59689  77982.000000  0   -2523886.643   4563895.732  -4508646.103
10 0 59689  78102.000000  0   -2046419.010   4105160.761  -5147137.564
10 0 59689  78222.000000  0   -1542131.049   3566526.944  -5695586.036
10 0 59689  78342.000000  0   -1021127.993   2957032.499  -6144496.476
10 0 59689  78462.000000  0    -493614.681   2287096.151  -6486117.463
10 0 59689  78582.000000  0      30301.601   1568335.440  -6714562.793
10 0 59689  78702.000000  0     540799.914    813365.352  -6825902.785
10 0 59689  78822.000000  0    1028525.311     35580.168  -6818225.224
10 0 59689  78942.000000  0    1484756.479   -751079.914  -6691664.241
10 0 59689  79062.000000  0    1901557.288  -1532372.529  -6448396.715
10 0 59689  79182.000000  0    2271912.017  -2294003.911  -6092609.141
10 0 59689  79302.000000  0    2589842.548  -3021884.313  -5630434.181
10 0 59689  79422.000000  0    2850506.341  -3702387.254  -5069857.088
10 0 59689  79542.000000  0    3050272.499  -4322606.174  -4420587.062
10 0 59689  79662.000000  0    3186773.117  -4870600.513  -3693898.948
10 0 59689  79782.000000  0    3258931.310  -5335631.098  -2902448.536
10 0 59689  79902.000000  0    3266963.923  -5708380.011  -2060058.634
10 0 59689  80022.000000  0    3212357.969  -5981145.807  -1181479.752
10 0 59689  80142.000000  0    3097821.088  -6148011.289   -282130.284
10 0 59689  80262.000000  0    2927205.579  -6204977.108    622180.197
10 0 59689  80382.000000  0    2705408.493  -6150057.676   1515535.514
10 0 59689  80502.000000  0    2438250.958  -5983338.255   2382202.882
10 0 59689  80622.000000  0    2132337.692  -5706987.423   3206919.497
10 0 59689  80742.000000  0    1794902.069  -5325227.815   3975167.416
10 0 59689  80862.000000  0    1433640.510  -4844267.304   4673433.503
10 0 59689  80982.000000  0    1056541.260  -4272190.890   5289448.948
10 0 59689  81102.000000  0     671710.218  -3618816.631   5812405.630
10 0 59689  81222.000000  0     287197.876  -2895516.690   6233141.919
10 0 59689  81342.000000  0     -89167.252  -2115012.060   6544296.173
10 0 59689  81462.000000  0    -449935.766  -1291144.804   6740428.885
10 0 59689  81582.000000  0    -788183.128   -438630.837   6818113.250
10 0 59689  81702.000000  0   -1097641.377    427204.335   6775992.023
10 0 59689  81822.000000  0   -1372814.814   1290701.186   6614799.485
10 0 59689  81942.000000  0   -1609077.296   2136148.651   6337349.224
10 0 59689  82062.000000  0   -1802750.499   2948069.645   5948488.282
10 0 59689  82182.000000  0   -1951161.562   3711505.429   5455017.082
10 0 59689  82302.000000  0   -2052679.009   4412293.950   4865577.100
10 0 59689  82422.000000  0   -2106727.309   5037338.771   4190505.798
10 0 59689  82542.000000  0   -2113778.443   5574861.792   3441659.520
10 0 59689  82662.000000  0   -2075321.301   6014634.108   2632206.685
10 0 59689  82782.000000  0   -1993809.061   6348179.159   1776395.180
10 0 59689  82902.000000  0   -1872585.239   6568944.295    889297.635
10 0 59689  83022.000000  0   -1715790.016   6672435.350    -13460.197
10 0 59689  83142.000000  0   -1528250.037   6656311.130   -915982.520
10 0 59689  83262.000000  0   -1315353.629   6520435.633  -1802394.160
10 0 59689  83382.000000  0   -1082913.919   6266881.015  -2657130.471
10 0 59689  83502.000000  0    -837025.801   5899885.764  -3465215.096
10 0 59689  83622.000000  0    -583919.714   5425773.270  -4212523.331
10 0 59689  83742.000000  0    -329815.893   4852830.943  -4886027.942
10 0 59689  83862.000000  0     -80782.115   4191153.530  -5474021.059
10 0 59689  83982.000000  0     157402.097   3452455.048  -5966310.376
10 0 59689  84102.000000  0     379371.402   2649852.464  -6354385.831
10 0 59689  84222.000000  0     580287.637   1797627.734  -6631554.582
10 0 59689  84342.000000  0     755939.159    910973.721  -6793045.646
10 0 59689  84462.000000  0     902824.296      5726.024  -6836083.455
10 0 59689  84582.000000  0    1018217.929   -901914.821  -6759930.220
10 0 59689  84702.000000  0    1100220.125  -1795666.480  -6565895.471
10 0 59689  84822.000000  0    1147786.725  -2659448.115  -6257315.573
10 0 59689  84942.000000  0    1160742.200  -3477663.387  -5839504.843
10 0 59689  85062.000000  0    1139772.558  -4235480.959  -5319674.021
10 0 59689  85182.000000  0    1086399.950  -4919103.727  -4706815.601
10 0 59689  85302.000000  0    1002939.121  -5516023.967  -4011560.281
10 0 59689  85422.000000  0     892435.212  -6015260.804  -3246002.607
10 0 59689  85542.000000  0     758584.716  -6407572.761  -2423497.902
10 0 59689  85662.000000  0     605641.322  -6685641.470  -1558433.722
10 0 59689  85782.000000  0     438307.957  -6844221.050   -665977.848
10 0 59689  85902.000000  0     261617.463  -6880247.383    238191.599
10 0 59689  86022.000000  0      80805.161  -6792905.083   1138167.550
10 0 59689  86142.000000  0     -98823.512  -6583650.483   2018101.999
10 0 59689  86262.000000  0    -272027.092  -6256188.620   2862494.976
10 0 59689  86382.000000  0    -433760.095  -5816403.052   3656477.328
10 0 59690    102.000000  0    -579299.702  -5272240.939   4386077.464
10 0 59690    222.000000  0    -704364.133  -4633561.043   5038469.891
10 0 59690    342.000000  0    -805219.234  -3911945.224   5602200.869
10 0 59690    462.000000  0    -878771.429  -3120478.812   6067388.190
10 0 59690    582.000000  0    -922644.827  -2273503.287   6425889.221
10 0 59690    702.000000  0    -935240.716  -1386351.166   6671435.468
10 0 59690    822.000000  0    -915779.268   -475066.460   6799736.970
10 0 59690    942.000000  0    -864323.263    443886.961   6808553.325
10 0 59690   1062.000000  0    -781781.719   1353922.735   6697730.496
10 0 59690   1182.000000  0    -669893.386   2238631.032   6469203.314
10 0 59690   1302.000000  0    -531191.138   3082074.151   6126963.712
10 0 59690   1422.000000  0    -368948.046   3869074.616   5676995.462
10 0 59690   1542.000000  0    -187105.930   4585491.411   5127174.640
10 0 59690   1662.000000  0       9812.918   5218479.428   4487138.511
10 0 59690   1782.000000  0     216809.212   5756728.736   3768120.480
10 0 59690   1902.000000  0     428522.426   6190672.707   2982756.810
10 0 59690   2022.000000  0     639357.097   6512673.278   2144868.295
10 0 59690   2142.000000  0     843618.511   6717165.062   1269209.625
10 0 59690   2262.000000  0    1035650.999   6800757.100    371203.900
10 0 59690   2382.000000  0    1209977.932   6762291.940   -533336.844
10 0 59690   2502.000000  0    1361438.227   6602859.780  -1428498.680
10 0 59690   2622.000000  0    1485315.960   6325767.861  -2298553.360
10 0 59690   2742.000000  0    1577460.445   5936466.476  -3128241.295
99
